NORAD_CAT_ID,OBJECT_NAME,OBJECT_TYPE,EPOCH,MEAN_MOTION,ECCENTRICITY,INCLINATION,RA_OF_ASC_NODE,ARG_OF_PERICENTER,MEAN_ANOMALY,BSTAR,MEAN_MOTION_DOT,MEAN_MOTION_DDOT,TLE_LINE0,TLE_LINE1,TLE_LINE2,SEMIMAJOR_AXIS,PERIOD,APOGEE,PERIGEE,DECAYED
56798.0,STARLINK-6068,PAYLOAD,2024-03-05 02:57:14,14.98279484,0.0003306,70.0011,16.5149,273.6955,86.3826,0.00073714,8.702e-05,0.0,0 STARLINK-6068,1 56798U 23078AH  24065.12308557  .00008702  00000-0  73714-3 0  9995,2 56798  70.0011  16.5149 0003306 273.6955  86.3826 14.98279484 43401,6950.349,96.11,574.512,569.916,0.0
56798.0,STARLINK-6068,PAYLOAD,2024-03-05 06:09:30,14.98268401,0.0003084,70.0011,16.1781,272.2968,87.7838,0.0010761,0.0001275,0.0,0 STARLINK-6068,1 56798U 23078AH  24065.25660714  .00012750  00000-0  10761-2 0  9995,2 56798  70.0011  16.1781 0003084 272.2968  87.7838 14.98268401 43833,6950.383,96.111,574.392,570.105,0.0
56798.0,STARLINK-6068,PAYLOAD,2024-03-06 01:23:06,14.98340309,0.0002737,70.002,14.1606,261.4964,98.5885,-0.00010086,-1.296e-05,0.0,0 STARLINK-6068,1 56798U 23078AH  24066.05771191 -.00001296  00000-0 -10086-3 0  9992,2 56798  70.0020  14.1606 0002737 261.4964  98.5885 14.98340309 43545,6950.161,96.106,573.928,570.124,0.0
56798.0,STARLINK-6068,PAYLOAD,2024-03-06 04:35:22,14.98344065,0.0002498,70.0027,13.821,253.2274,106.8611,-0.00016108,-2.015e-05,0.0,0 STARLINK-6068,1 56798U 23078AH  24066.19122964 -.00002015  00000-0 -16108-3 0  9996,2 56798  70.0027  13.8210 0002498 253.2274 106.8611 14.98344065 43976,6950.149,96.106,573.751,570.278,0.0
56798.0,STARLINK-6068,PAYLOAD,2024-03-07 03:01:14,14.98334272,0.000296,70.002,11.4655,276.9114,83.1708,0.00011759,1.311e-05,0.0,0 STARLINK-6068,1 56798U 23078AH  24067.12586262  .00001311  00000-0  11759-3 0  9998,2 56798  70.0020  11.4655 0002960 276.9114  83.1708 14.98334272 43709,6950.18,96.107,574.102,569.987,0.0
56798.0,STARLINK-6068,PAYLOAD,2024-03-07 06:13:30,14.98334255,0.0003062,70.0024,11.1295,279.197,80.8843,0.00013225,1.486e-05,0.0,0 STARLINK-6068,1 56798U 23078AH  24067.25938192  .00001486  00000-0  13225-3 0  9998,2 56798  70.0024  11.1295 0003062 279.1970  80.8843 14.98334255 44132,6950.18,96.107,574.173,569.917,0.0
56798.0,STARLINK-6068,PAYLOAD,2024-03-08 03:03:15,14.98338706,0.0002731,70.0021,8.9433,259.0596,101.0255,-8.7118e-05,-1.132e-05,0.0,0 STARLINK-6068,1 56798U 23078AH  24068.12726165 -.00001132  00000-0 -87118-4 0  9993,2 56798  70.0021   8.9433 0002731 259.0596 101.0255 14.98338706 43856,6950.166,96.106,573.929,570.133,0.0
56798.0,STARLINK-6068,PAYLOAD,2024-03-08 12:40:04,14.98324169,0.0002545,70.0024,7.933,266.8017,93.2851,0.00011632,1.295e-05,0.0,0 STARLINK-6068,1 56798U 23078AH  24068.52782514  .00001295  00000-0  11632-3 0  9992,2 56798  70.0024   7.9330 0002545 266.8017  93.2851 14.98324169 44326,6950.211,96.107,573.845,570.307,0.0
56798.0,STARLINK-6068,PAYLOAD,2024-03-09 03:05:15,14.98336267,0.0002413,70.0024,6.4173,256.6141,103.4749,-1.4759e-05,-2.69e-06,0.0,0 STARLINK-6068,1 56798U 23078AH  24069.12865657 -.00000269  00000-0 -14759-4 0  9995,2 56798  70.0024   6.4173 0002413 256.6141 103.4749 14.98336267 44001,6950.174,96.107,573.716,570.361,0.0
56798.0,STARLINK-6068,PAYLOAD,2024-03-09 12:42:04,14.98335836,0.0002152,70.0035,5.4056,281.9347,78.1571,-5.5911e-05,-7.6e-06,0.0,0 STARLINK-6068,1 56798U 23078AH  24069.52921854 -.00000760  00000-0 -55911-4 0  9992,2 56798  70.0035   5.4056 0002152 281.9347  78.1571 14.98335836 44474,6950.175,96.107,573.536,570.544,0.0
56798.0,STARLINK-6068,PAYLOAD,2024-03-10 03:07:17,14.98321505,0.0002571,70.0022,3.8936,261.742,98.3447,-9.6536e-05,-1.244e-05,0.0,0 STARLINK-6068,1 56798U 23078AH  24070.13006692 -.00001244  00000-0 -96536-4 0  9991,2 56798  70.0022   3.8936 0002571 261.7420  98.3447 14.98321505 44151,6950.219,96.108,573.871,570.297,0.0
56798.0,STARLINK-6068,PAYLOAD,2024-03-10 12:44:06,14.98323866,0.0001987,70.0025,2.8809,279.9967,80.0967,3.3359e-05,3.05e-06,0.0,0 STARLINK-6068,1 56798U 23078AH  24070.53062592  .00000305  00000-0  33359-4 0  9995,2 56798  70.0025   2.8809 0001987 279.9967  80.0967 14.98323866 44628,6950.212,96.107,573.458,570.696,0.0
56798.0,STARLINK-6068,PAYLOAD,2024-03-10 20:44:45,14.98336016,0.0002704,70.0037,2.04,272.4106,87.6744,2.0516e-05,1.52e-06,0.0,0 STARLINK-6068,1 56798U 23078AH  24070.86441516  .00000152  00000-0  20516-4 0  9999,2 56798  70.0037   2.0400 0002704 272.4106  87.6744 14.98336016 44268,6950.174,96.107,573.919,570.16,0.0
56798.0,STARLINK-6068,PAYLOAD,2024-03-10 22:20:53,14.98335733,0.0003039,70.0016,1.8721,269.846,90.2351,4.8659e-05,4.88e-06,0.0,0 STARLINK-6068,1 56798U 23078AH  24070.93117290  .00000488  00000-0  48659-4 0  9996,2 56798  70.0016   1.8721 0003039 269.8460  90.2351 14.98335733 44688,6950.175,96.107,574.152,569.928,0.0
56798.0,STARLINK-6068,PAYLOAD,2024-03-11 04:45:24,14.98350075,0.0002861,70.0008,1.1977,270.2023,89.8808,2.7475e-05,2.35e-06,0.0,0 STARLINK-6068,1 56798U 23078AH  24071.19820225  .00000235  00000-0  27475-4 0  9997,2 56798  70.0008   1.1977 0002861 270.2023  89.8808 14.98350075 44315,6950.131,96.106,573.984,570.007,0.0
56798.0,STARLINK-6068,PAYLOAD,2024-03-11 12:46:06,14.98332336,0.0002274,70.0026,0.3555,276.6159,83.4741,-2.4152e-05,-3.81e-06,0.0,0 STARLINK-6068,1 56798U 23078AH  24071.53201525 -.00000381  00000-0 -24152-4 0  9994,2 56798  70.0026   0.3555 0002274 276.6159  83.4741 14.98332336 44367,6950.186,96.107,573.631,570.47,0.0
56798.0,STARLINK-6068,PAYLOAD,2024-03-12 04:47:27,14.98317879,0.000278,70.0016,358.6723,265.7992,94.285,3.2769e-05,2.98e-06,0.0,0 STARLINK-6068,1 56798U 23078AH  24072.19962245  .00000298  00000-0  32769-4 0  9998,2 56798  70.0016 358.6723 0002780 265.7992  94.2850 14.98317879 44465,6950.23,96.108,574.028,570.163,0.0
56798.0,STARLINK-6068,PAYLOAD,2024-03-12 12:48:06,14.98336978,0.0002965,70.0017,357.8311,274.8285,85.2535,0.00021117,2.428e-05,0.0,0 STARLINK-6068,1 56798U 23078AH  24072.53340559  .00002428  00000-0  21117-3 0  9995,2 56798  70.0017 357.8311 0002965 274.8285  85.2535 14.98336978 44518,6950.171,96.107,574.097,569.976,0.0
56798.0,STARLINK-6068,PAYLOAD,2024-03-13 03:13:17,14.9835394,0.000296,70.0007,356.3165,270.0331,90.0488,5.25e-05,5.34e-06,0.0,0 STARLINK-6068,1 56798U 23078AH  24073.13423149  .00000534  00000-0  52500-4 0  9996,2 56798  70.0007 356.3165 0002960 270.0331  90.0488 14.98353940 44602,6950.119,96.105,574.041,569.927,0.0
56798.0,STARLINK-6068,PAYLOAD,2024-03-13 04:49:25,14.98355189,0.0002898,70.0009,356.1483,270.3155,89.7672,6.8796e-05,7.28e-06,0.0,0 STARLINK-6068,1 56798U 23078AH  24073.20098948  .00000728  00000-0  68796-4 0  9998,2 56798  70.0009 356.1483 0002898 270.3155  89.7672 14.98355189 45026,6950.115,96.105,573.994,569.966,0.0
56798.0,STARLINK-6068,PAYLOAD,2024-03-13 22:26:56,14.98319934,0.0002913,70.0011,354.2949,276.8666,83.2162,-1.8535e-05,-3.14e-06,0.0,0 STARLINK-6068,1 56798U 23078AH  24073.93537458 -.00000314  00000-0 -18535-4 0  9991,2 56798  70.0011 354.2949 0002913 276.8666  83.2162 14.98319934 45134,6950.224,96.108,574.114,570.064,0.0
56798.0,STARLINK-6068,PAYLOAD,2024-03-14 04:51:28,14.98318304,0.0003269,70.0005,353.6226,274.0179,86.0607,-7.7474e-05,-1.017e-05,0.0,0 STARLINK-6068,1 56798U 23078AH  24074.20241681 -.00001017  00000-0 -77474-4 0  9990,2 56798  70.0005 353.6226 0003269 274.0179  86.0607 14.98318304 44765,6950.229,96.108,574.366,569.822,0.0
56798.0,STARLINK-6068,PAYLOAD,2024-03-14 20:52:49,14.98328364,0.0003381,70.0001,351.9397,272.3227,87.7545,-0.00022136,-2.733e-05,0.0,0 STARLINK-6068,1 56798U 23078AH  24074.87001571 -.00002733  00000-0 -22136-3 0  9995,2 56798  70.0001 351.9397 0003381 272.3227  87.7545 14.98328364 44868,6950.198,96.107,574.413,569.713,0.0
56798.0,STARLINK-6068,PAYLOAD,2024-03-14 22:28:57,14.98329406,0.0003193,70.0006,351.7716,269.2461,90.8332,-0.0002064,-2.555e-05,0.0,0 STARLINK-6068,1 56798U 23078AH  24074.93677478 -.00002555  00000-0 -20640-3 0  9997,2 56798  70.0006 351.7716 0003193 269.2461  90.8332 14.98329406 45286,6950.195,96.107,574.279,569.841,0.0
56798.0,STARLINK-6068,PAYLOAD,2024-03-15 03:17:20,14.9836407,0.0003575,70.0012,351.2683,234.4772,125.6054,-0.00065748,-7.936e-05,0.0,0 STARLINK-6068,1 56798U 23078AH  24075.13704435 -.00007936  00000-0 -65748-3 0  9990,2 56798  70.0012 351.2683 0003575 234.4772 125.6054 14.98364070 44906,6950.088,96.105,574.437,569.468,0.0
56798.0,STARLINK-6068,PAYLOAD,2024-03-15 04:53:29,14.98336642,0.0003127,70.0008,351.0981,278.3985,81.6819,-0.00017205,-2.146e-05,0.0,0 STARLINK-6068,1 56798U 23078AH  24075.20381014 -.00002146  00000-0 -17205-3 0  9995,2 56798  70.0008 351.0981 0003127 278.3985  81.6819 14.98336642 44911,6950.172,96.107,574.211,569.864,0.0
56798.0,STARLINK-6068,PAYLOAD,2024-03-15 22:30:58,14.98322119,0.0003127,70.0006,349.2468,276.3469,83.7334,0.00011548,1.285e-05,0.0,0 STARLINK-6068,1 56798U 23078AH  24075.93817272  .00001285  00000-0  11548-3 0  9990,2 56798  70.0006 349.2468 0003127 276.3469  83.7334 14.98322119 45430,6950.217,96.108,574.256,569.909,0.0
56798.0,STARLINK-6068,PAYLOAD,2024-03-16 03:19:22,14.98324912,0.0003061,70.0007,348.7422,272.9591,87.1218,0.00013983,1.576e-05,0.0,0 STARLINK-6068,1 56798U 23078AH  24076.13845058  .00001576  00000-0  13983-3 0  9994,2 56798  70.0007 348.7422 0003061 272.9591  87.1218 14.98324912 45465,6950.209,96.107,574.201,569.946,0.0
56798.0,STARLINK-6068,PAYLOAD,2024-03-16 20:56:51,14.98327549,0.0003037,70.0007,346.8921,265.471,94.6102,9.8108e-06,2.4e-07,0.0,0 STARLINK-6068,1 56798U 23078AH  24076.87281415  .00000024  00000-0  98108-5 0  9997,2 56798  70.0007 346.8921 0003037 265.4710  94.6102 14.98327549 45162,6950.2,96.107,574.176,569.955,0.0
56798.0,STARLINK-6068,PAYLOAD,2024-03-16 22:32:59,14.98327537,0.0003033,70.0007,346.7238,265.3758,94.7055,9.874e-06,2.5e-07,0.0,0 STARLINK-6068,1 56798U 23078AH  24076.93957422  .00000025  00000-0  98740-5 0  9995,2 56798  70.0007 346.7238 0003033 265.3758  94.7055 14.98327537 45580,6950.201,96.107,574.174,569.958,0.0
